KUIPER-00053            
1 64513U 25134P   25344.50216486  .00003968  00000+0  54787-3 0  9993
2 64513  51.9003 257.4793 0001799  51.6626 308.4498 14.80033593 27009
KUIPER-00054            
1 64514U 25134Q   25344.16905513  .00005692  00000+0  77532-3 0  9991
2 64514  51.8977 253.9361 0005392  22.5341 337.5857 14.79917932 27025
KUIPER-00055            
1 64515U 25134R   25344.43149106  .00021973  00000+0  10855-2 0  9994
2 64515  51.8892 239.3401 0002872 168.2346 191.8700 15.17783102 27254
KUIPER-00056            
1 64516U 25134S   25344.16237227  .00019233  00000+0  25439-2 0  9997
2 64516  51.9018 260.0111 0002409  32.4893 327.6218 14.79945642 26944
KUIPER-00057            
1 64517U 25134T   25344.22186411  .00009665  00000+0  12935-2 0  9998
2 64517  51.8995 267.2386 0009556 343.5200  16.5450 14.79959362 26844
KUIPER-00058            
1 64518U 25134U   25344.16130571  .00008329  00000+0  11203-2 0  9991
2 64518  51.8998 261.4242 0004716  31.9849 328.1399 14.79930437 26920
KUIPER-00059            
1 64519U 25134V   25344.16647777  .00001585  00000+0  23681-3 0  9994
2 64519  51.8995 256.4541 0004297 155.6332 204.4834 14.79972428 26992
KUIPER-00060            
1 64520U 25134W   25343.75722070 -.00031556  00000+0 -41265-2 0  9990
2 64520  51.9008 259.2763 0002728  76.9956 283.1311 14.79961862 26906
