<?xml version="1.0" encoding="UTF-8"?>
<ndm xmlns:xsi="http://www.w3.org/2001/XMLSchema-instance" xsi:noNamespaceSchemaLocation="https://sanaregistry.org/r/ndmxml_unqualified/ndmxml-2.0.0-master-2.0.xsd">
<omm id="CCSDS_OMM_VERS" version="2.0">
<header><CREATION_DATE/><ORIGINATOR/></header><body><segment><metadata><OBJECT_NAME>KUIPER-00053</OBJECT_NAME><OBJECT_ID>2025-134P</OBJECT_ID><CENTER_NAME>EARTH</CENTER_NAME><REF_FRAME>TEME</REF_FRAME><TIME_SYSTEM>UTC</TIME_SYSTEM><MEAN_ELEMENT_THEORY>SGP4</MEAN_ELEMENT_THEORY></metadata><data><meanElements><EPOCH>2025-12-10T12:03:07.043040</EPOCH><MEAN_MOTION>14.80033593</MEAN_MOTION><ECCENTRICITY>.0001799</ECCENTRICITY><INCLINATION>51.9003</INCLINATION><RA_OF_ASC_NODE>257.4793</RA_OF_ASC_NODE><ARG_OF_PERICENTER>51.6626</ARG_OF_PERICENTER><MEAN_ANOMALY>308.4498</MEAN_ANOMALY></meanElements><tleParameters><EPHEMERIS_TYPE>0</EPHEMERIS_TYPE><CLASSIFICATION_TYPE>U</CLASSIFICATION_TYPE><NORAD_CAT_ID>64513</NORAD_CAT_ID><ELEMENT_SET_NO>999</ELEMENT_SET_NO><REV_AT_EPOCH>2700</REV_AT_EPOCH><BSTAR>.54787E-3</BSTAR><MEAN_MOTION_DOT>.3968E-4</MEAN_MOTION_DOT><MEAN_MOTION_DDOT>0</MEAN_MOTION_DDOT></tleParameters></data></segment></body></omm>
<omm id="CCSDS_OMM_VERS" version="2.0">
<header><CREATION_DATE/><ORIGINATOR/></header><body><segment><metadata><OBJECT_NAME>KUIPER-00054</OBJECT_NAME><OBJECT_ID>2025-134Q</OBJECT_ID><CENTER_NAME>EARTH</CENTER_NAME><REF_FRAME>TEME</REF_FRAME><TIME_SYSTEM>UTC</TIME_SYSTEM><MEAN_ELEMENT_THEORY>SGP4</MEAN_ELEMENT_THEORY></metadata><data><meanElements><EPOCH>2025-12-10T04:03:26.363232</EPOCH><MEAN_MOTION>14.79917932</MEAN_MOTION><ECCENTRICITY>.00053928</ECCENTRICITY><INCLINATION>51.8977</INCLINATION><RA_OF_ASC_NODE>253.9361</RA_OF_ASC_NODE><ARG_OF_PERICENTER>22.5341</ARG_OF_PERICENTER><MEAN_ANOMALY>337.5857</MEAN_ANOMALY></meanElements><tleParameters><EPHEMERIS_TYPE>0</EPHEMERIS_TYPE><CLASSIFICATION_TYPE>U</CLASSIFICATION_TYPE><NORAD_CAT_ID>64514</NORAD_CAT_ID><ELEMENT_SET_NO>999</ELEMENT_SET_NO><REV_AT_EPOCH>2702</REV_AT_EPOCH><BSTAR>.77531953E-3</BSTAR><MEAN_MOTION_DOT>.5692E-4</MEAN_MOTION_DOT><MEAN_MOTION_DDOT>0</MEAN_MOTION_DDOT></tleParameters></data></segment></body></omm>
<omm id="CCSDS_OMM_VERS" version="2.0">
<header><CREATION_DATE/><ORIGINATOR/></header><body><segment><metadata><OBJECT_NAME>KUIPER-00055</OBJECT_NAME><OBJECT_ID>2025-134R</OBJECT_ID><CENTER_NAME>EARTH</CENTER_NAME><REF_FRAME>TEME</REF_FRAME><TIME_SYSTEM>UTC</TIME_SYSTEM><MEAN_ELEMENT_THEORY>SGP4</MEAN_ELEMENT_THEORY></metadata><data><meanElements><EPOCH>2025-12-10T10:21:20.826720</EPOCH><MEAN_MOTION>15.17783102</MEAN_MOTION><ECCENTRICITY>.0002872</ECCENTRICITY><INCLINATION>51.8892</INCLINATION><RA_OF_ASC_NODE>239.3401</RA_OF_ASC_NODE><ARG_OF_PERICENTER>168.2346</ARG_OF_PERICENTER><MEAN_ANOMALY>191.8700</MEAN_ANOMALY></meanElements><tleParameters><EPHEMERIS_TYPE>0</EPHEMERIS_TYPE><CLASSIFICATION_TYPE>U</CLASSIFICATION_TYPE><NORAD_CAT_ID>64515</NORAD_CAT_ID><ELEMENT_SET_NO>999</ELEMENT_SET_NO><REV_AT_EPOCH>2725</REV_AT_EPOCH><BSTAR>.10855E-2</BSTAR><MEAN_MOTION_DOT>.21973E-3</MEAN_MOTION_DOT><MEAN_MOTION_DDOT>0</MEAN_MOTION_DDOT></tleParameters></data></segment></body></omm>
<omm id="CCSDS_OMM_VERS" version="2.0">
<header><CREATION_DATE/><ORIGINATOR/></header><body><segment><metadata><OBJECT_NAME>KUIPER-00056</OBJECT_NAME><OBJECT_ID>2025-134S</OBJECT_ID><CENTER_NAME>EARTH</CENTER_NAME><REF_FRAME>TEME</REF_FRAME><TIME_SYSTEM>UTC</TIME_SYSTEM><MEAN_ELEMENT_THEORY>SGP4</MEAN_ELEMENT_THEORY></metadata><data><meanElements><EPOCH>2025-12-10T03:53:48.964128</EPOCH><MEAN_MOTION>14.79945642</MEAN_MOTION><ECCENTRICITY>.00024091</ECCENTRICITY><INCLINATION>51.9018</INCLINATION><RA_OF_ASC_NODE>260.0111</RA_OF_ASC_NODE><ARG_OF_PERICENTER>32.4893</ARG_OF_PERICENTER><MEAN_ANOMALY>327.6218</MEAN_ANOMALY></meanElements><tleParameters><EPHEMERIS_TYPE>0</EPHEMERIS_TYPE><CLASSIFICATION_TYPE>U</CLASSIFICATION_TYPE><NORAD_CAT_ID>64516</NORAD_CAT_ID><ELEMENT_SET_NO>999</ELEMENT_SET_NO><REV_AT_EPOCH>2694</REV_AT_EPOCH><BSTAR>.25439126E-2</BSTAR><MEAN_MOTION_DOT>.19233E-3</MEAN_MOTION_DOT><MEAN_MOTION_DDOT>0</MEAN_MOTION_DDOT></tleParameters></data></segment></body></omm>
<omm id="CCSDS_OMM_VERS" version="2.0">
<header><CREATION_DATE/><ORIGINATOR/></header><body><segment><metadata><OBJECT_NAME>KUIPER-00057</OBJECT_NAME><OBJECT_ID>2025-134T</OBJECT_ID><CENTER_NAME>EARTH</CENTER_NAME><REF_FRAME>TEME</REF_FRAME><TIME_SYSTEM>UTC</TIME_SYSTEM><MEAN_ELEMENT_THEORY>SGP4</MEAN_ELEMENT_THEORY></metadata><data><meanElements><EPOCH>2025-12-10T05:19:29.059104</EPOCH><MEAN_MOTION>14.79959362</MEAN_MOTION><ECCENTRICITY>.0009556</ECCENTRICITY><INCLINATION>51.8995</INCLINATION><RA_OF_ASC_NODE>267.2386</RA_OF_ASC_NODE><ARG_OF_PERICENTER>343.5200</ARG_OF_PERICENTER><MEAN_ANOMALY>16.5450</MEAN_ANOMALY></meanElements><tleParameters><EPHEMERIS_TYPE>0</EPHEMERIS_TYPE><CLASSIFICATION_TYPE>U</CLASSIFICATION_TYPE><NORAD_CAT_ID>64517</NORAD_CAT_ID><ELEMENT_SET_NO>999</ELEMENT_SET_NO><REV_AT_EPOCH>2684</REV_AT_EPOCH><BSTAR>.12935E-2</BSTAR><MEAN_MOTION_DOT>.9665E-4</MEAN_MOTION_DOT><MEAN_MOTION_DDOT>0</MEAN_MOTION_DDOT></tleParameters></data></segment></body></omm>
<omm id="CCSDS_OMM_VERS" version="2.0">
<header><CREATION_DATE/><ORIGINATOR/></header><body><segment><metadata><OBJECT_NAME>KUIPER-00058</OBJECT_NAME><OBJECT_ID>2025-134U</OBJECT_ID><CENTER_NAME>EARTH</CENTER_NAME><REF_FRAME>TEME</REF_FRAME><TIME_SYSTEM>UTC</TIME_SYSTEM><MEAN_ELEMENT_THEORY>SGP4</MEAN_ELEMENT_THEORY></metadata><data><meanElements><EPOCH>2025-12-10T03:52:16.813344</EPOCH><MEAN_MOTION>14.79930437</MEAN_MOTION><ECCENTRICITY>.00047164</ECCENTRICITY><INCLINATION>51.8998</INCLINATION><RA_OF_ASC_NODE>261.4242</RA_OF_ASC_NODE><ARG_OF_PERICENTER>31.9849</ARG_OF_PERICENTER><MEAN_ANOMALY>328.1399</MEAN_ANOMALY></meanElements><tleParameters><EPHEMERIS_TYPE>0</EPHEMERIS_TYPE><CLASSIFICATION_TYPE>U</CLASSIFICATION_TYPE><NORAD_CAT_ID>64518</NORAD_CAT_ID><ELEMENT_SET_NO>999</ELEMENT_SET_NO><REV_AT_EPOCH>2692</REV_AT_EPOCH><BSTAR>.1120254E-2</BSTAR><MEAN_MOTION_DOT>.8329E-4</MEAN_MOTION_DOT><MEAN_MOTION_DDOT>0</MEAN_MOTION_DDOT></tleParameters></data></segment></body></omm>
<omm id="CCSDS_OMM_VERS" version="2.0">
<header><CREATION_DATE/><ORIGINATOR/></header><body><segment><metadata><OBJECT_NAME>KUIPER-00059</OBJECT_NAME><OBJECT_ID>2025-134V</OBJECT_ID><CENTER_NAME>EARTH</CENTER_NAME><REF_FRAME>TEME</REF_FRAME><TIME_SYSTEM>UTC</TIME_SYSTEM><MEAN_ELEMENT_THEORY>SGP4</MEAN_ELEMENT_THEORY></metadata><data><meanElements><EPOCH>2025-12-10T03:59:43.679328</EPOCH><MEAN_MOTION>14.79972428</MEAN_MOTION><ECCENTRICITY>.00042973</ECCENTRICITY><INCLINATION>51.8995</INCLINATION><RA_OF_ASC_NODE>256.4541</RA_OF_ASC_NODE><ARG_OF_PERICENTER>155.6332</ARG_OF_PERICENTER><MEAN_ANOMALY>204.4834</MEAN_ANOMALY></meanElements><tleParameters><EPHEMERIS_TYPE>0</EPHEMERIS_TYPE><CLASSIFICATION_TYPE>U</CLASSIFICATION_TYPE><NORAD_CAT_ID>64519</NORAD_CAT_ID><ELEMENT_SET_NO>999</ELEMENT_SET_NO><REV_AT_EPOCH>2699</REV_AT_EPOCH><BSTAR>.23681014E-3</BSTAR><MEAN_MOTION_DOT>.1585E-4</MEAN_MOTION_DOT><MEAN_MOTION_DDOT>0</MEAN_MOTION_DDOT></tleParameters></data></segment></body></omm>
<omm id="CCSDS_OMM_VERS" version="2.0">
<header><CREATION_DATE/><ORIGINATOR/></header><body><segment><metadata><OBJECT_NAME>KUIPER-00060</OBJECT_NAME><OBJECT_ID>2025-134W</OBJECT_ID><CENTER_NAME>EARTH</CENTER_NAME><REF_FRAME>TEME</REF_FRAME><TIME_SYSTEM>UTC</TIME_SYSTEM><MEAN_ELEMENT_THEORY>SGP4</MEAN_ELEMENT_THEORY></metadata><data><meanElements><EPOCH>2025-12-09T18:10:23.868480</EPOCH><MEAN_MOTION>14.79961862</MEAN_MOTION><ECCENTRICITY>.00027285</ECCENTRICITY><INCLINATION>51.9008</INCLINATION><RA_OF_ASC_NODE>259.2763</RA_OF_ASC_NODE><ARG_OF_PERICENTER>76.9956</ARG_OF_PERICENTER><MEAN_ANOMALY>283.1311</MEAN_ANOMALY></meanElements><tleParameters><EPHEMERIS_TYPE>0</EPHEMERIS_TYPE><CLASSIFICATION_TYPE>U</CLASSIFICATION_TYPE><NORAD_CAT_ID>64520</NORAD_CAT_ID><ELEMENT_SET_NO>999</ELEMENT_SET_NO><REV_AT_EPOCH>2690</REV_AT_EPOCH><BSTAR>-.41265156E-2</BSTAR><MEAN_MOTION_DOT>-.31556E-3</MEAN_MOTION_DOT><MEAN_MOTION_DDOT>0</MEAN_MOTION_DDOT></tleParameters></data></segment></body></omm>

</ndm>
